0 COSMOS 1680
1 16011U 85079A   13283.18195678  .00000089  00000-0  41954-4 0   108
2 16011 074.0532 144.0501 0014972 020.3046 118.4271 14.32816720468292
0 COSMOS 1680
1 16011U 85079A   13286.11610234  .00000115  00000-0  51532-4 0   129
2 16011 074.0527 138.6973 0015099 014.2541 133.1371 14.32817169468711
0 COSMOS 1680
1 16011U 85079A   13287.16170693  .00000101  00000-0  46377-4 0   132
2 16011 074.0525 136.7897 0015136 012.0556 126.5461 14.32817707468867
0 COSMOS 1680
1 16011U 85079A   13288.53933255  .00000142  00000-0  61535-4 0   144
2 16011 074.0524 134.2763 0015201 009.1792 032.5611 14.32818484469062
0 COSMOS 1680
1 16011U 85079A   13289.73212067  .00000107  00000-0  48790-4 0   158
2 16011 074.0524 132.1001 0015249 006.7313 065.1150 14.32818742469234
0 COSMOS 1680
1 16011U 85079A   13290.78191399  .00000104  00000-0  47520-4 0   167
2 16011 074.0525 130.1848 0015287 004.6245 080.0360 14.32819117469387
0 COSMOS 1680
1 16011U 85079A   13292.11893711  .00000091  00000-0  42850-4 0   170
2 16011 074.0525 127.7454 0015343 001.8917 136.5638 14.32819558469575
0 COSMOS 1680
1 16011U 85079A   13293.49340336  .00000126  00000-0  55597-4 0   184
2 16011 074.0527 125.2377 0015408 359.0306 026.2839 14.32819728469775
0 COSMOS 1680
1 16011U 85079A   13294.54732554  .00000132  00000-0  57917-4 0   194
2 16011 074.0527 123.3149 0015447 356.8871 062.5354 14.32819882469929
0 COSMOS 1680
1 16011U 85079A   13296.09878848  .00000153  00000-0  65525-4 0   202
2 16011 074.0528 120.4845 0015514 353.7118 145.1795 14.32820501470149
